SWARM A                 
1 39452U 13067B   26169.96174807  .00008211  00000+0  14089-3 0  9992
2 39452  87.3319  55.5823 0003031  95.9591 264.2016 15.50982002706522
SWARM C                 
1 39453U 13067C   26169.96163663  .00008269  00000+0  14189-3 0  9995
2 39453  87.3318  54.1635 0003024  95.8452 264.3154 15.50980620706488
BRITE-CA1 (TORONTO)     
1 40020U 14033L   26169.94023028  .00000569  00000+0  93340-4 0  9991
2 40020  97.9742 298.8358 0077213 271.2984  87.9379 14.72678821642474
OCO 2                   
1 40059U 14035A   26169.94088993  .00000325  00000+0  82101-4 0  9990
2 40059  98.2017 111.2072 0001498  84.7817 275.3552 14.57112505636306
BRITE-PL2 (HEWELIUSZ)   
1 40119U 14049B   26169.77913407  .00001598  00000+0  15283-3 0  9999
2 40119  97.9100 281.7913 0015333 103.7702 256.5226 14.94598146641683
MMS 1                   
1 40482U 15011A   26169.91668981 -.00000680  00000+0  00000+0 0  9991
2 40482  72.1776 348.7646 8322315 167.4849 114.8730  0.28347433  1381
MMS 2                   
1 40483U 15011B   26169.91668981 -.00000680  00000+0  00000+0 0  9992
2 40483  72.1778 348.7668 8323100 167.4906 114.8618  0.28347450  1389
MMS 3                   
1 40484U 15011C   26169.91668981 -.00000680  00000+0  00000+0 0  9993
2 40484  72.1794 348.7717 8322239 167.4850 114.8572  0.28347300  1386
MMS 4                   
1 40485U 15011D   26169.91668981 -.00000680  00000+0  00000+0 0  9994
2 40485  72.1770 348.7670 8321894 167.4929 114.8457  0.28347410  1386
ASTROSAT                
1 40930U 15052A   26169.16786421  .00001390  00000+0  87537-4 0  9994
2 40930   5.9954 148.2888 0007721  46.0722 314.0042 14.82508881579973
DAMPE                   
1 41173U 15078A   26169.99871053  .00001181  00000+0  42212-4 0  9998
2 41173  97.4553 175.4746 0013783  71.4272 288.8465 15.30789783584829
PISAT                   
1 41784U 16059B   26169.91501830  .00000640  00000+0  11658-3 0  9999
2 41784  97.8178 170.2936 0028535 197.1252 162.8994 14.68985768519998
HXMT (HUIYAN)           
1 42758U 17034A   26169.97614228  .00002114  00000+0  11114-3 0  9992
2 42758  43.0125 173.0793 0030812 158.7173 201.4964 15.18485241497936
FLYING LAPTOP           
1 42831U 17042G   26169.98527682  .00002712  00000+0  21529-3 0  9996
2 42831  97.4695 325.4483 0019616 115.7715 244.5537 15.01155403486721
ZHANGHENG 1-01 (CSES-1) 
1 43194U 18015C   26169.98127294  .00005231  00000+0  23953-3 0  9997
2 43194  97.6876 335.6739 0017085 259.6453 100.2856 15.20829739464919
SALSAT                  
1 46495U 20068K   26169.97697597  .00005999  00000+0  21050-3 0  9999
2 46495  97.8853 173.1506 0007950 300.6759  59.3696 15.29820569315637
IXPE                    
1 49954U 21121A   26170.00002315  .00010786  00000+0  58424-3 0  9992
2 49954   0.2314 304.0291 0006907 107.8255  10.1114 15.10264570  5848
SMILE                   
1 69123U 26109A   26158.38327019 -.00000041  00000+0 -36778-3 0  9994
2 69123  69.9787 209.3069 3310191 288.5544  45.7342  7.54049028  2480
