OBJECT_NAME,OBJECT_ID,EPOCH,MEAN_MOTION,ECCENTRICITY,INCLINATION,RA_OF_ASC_NODE,ARG_OF_PERICENTER,MEAN_ANOMALY,EPHEMERIS_TYPE,CLASSIFICATION_TYPE,NORAD_CAT_ID,ELEMENT_SET_NO,REV_AT_EPOCH,BSTAR,MEAN_MOTION_DOT,MEAN_MOTION_DDOT
SWARM A,2013-067B,2026-06-18T23:04:55.033248,15.50982002,.00030316,87.3319,55.5823,95.9591,264.2016,0,U,39452,999,70652,.14088627E-3,.8211E-4,0
SWARM C,2013-067C,2026-06-18T23:04:45.404832,15.50980620,.00030242,87.3318,54.1635,95.8452,264.3154,0,U,39453,999,70648,.14188702E-3,.8269E-4,0
BRITE-CA1 (TORONTO),2014-033L,2026-06-18T22:33:55.896192,14.72678821,.00772134,97.9742,298.8358,271.2984,87.9379,0,U,40020,999,64247,.93339856E-4,.569E-5,0
OCO 2,2014-035A,2026-06-18T22:34:52.889952,14.57112505,.00014982,98.2017,111.2072,84.7817,275.3552,0,U,40059,999,63630,.82101394E-4,.325E-5,0
BRITE-PL2 (HEWELIUSZ),2014-049B,2026-06-18T18:41:57.183648,14.94598146,.00153333,97.9100,281.7913,103.7702,256.5226,0,U,40119,999,64168,.15283478E-3,.1598E-4,0
MMS 1,2015-011A,2026-06-18T22:00:01.999584,0.28347433,.8322315,72.1776,348.7646,167.4849,114.8730,0,U,40482,999,138,0,-.68E-5,0
MMS 2,2015-011B,2026-06-18T22:00:01.999584,0.28347450,.83231,72.1778,348.7668,167.4906,114.8618,0,U,40483,999,138,0,-.68E-5,0
MMS 3,2015-011C,2026-06-18T22:00:01.999584,0.28347300,.83222391,72.1794,348.7717,167.4850,114.8572,0,U,40484,999,138,0,-.68E-5,0
MMS 4,2015-011D,2026-06-18T22:00:01.999584,0.28347410,.83218945,72.1770,348.7670,167.4929,114.8457,0,U,40485,999,138,0,-.68E-5,0
ASTROSAT,2015-052A,2026-06-18T04:01:43.467744,14.82508881,.00077217,5.9954,148.2888,46.0722,314.0042,0,U,40930,999,57997,.87537357E-4,.139E-4,0
DAMPE,2015-078A,2026-06-18T23:58:08.589792,15.30789783,.00137837,97.4553,175.4746,71.4272,288.8465,0,U,41173,999,58482,.42211626E-4,.1181E-4,0
PISAT,2016-059B,2026-06-18T21:57:37.581120,14.68985768,.00285357,97.8178,170.2936,197.1252,162.8994,0,U,41784,999,51999,.11658211E-3,.64E-5,0
HXMT (HUIYAN),2017-034A,2026-06-18T23:25:38.692992,15.18485241,.00308123,43.0125,173.0793,158.7173,201.4964,0,U,42758,999,49793,.11113706E-3,.2114E-4,0
FLYING LAPTOP,2017-042G,2026-06-18T23:38:47.917248,15.01155403,.00196162,97.4695,325.4483,115.7715,244.5537,0,U,42831,999,48672,.21529098E-3,.2712E-4,0
ZHANGHENG 1-01 (CSES-1),2018-015C,2026-06-18T23:33:01.982016,15.20829739,.00170853,97.6876,335.6739,259.6453,100.2856,0,U,43194,999,46491,.23953303E-3,.5231E-4,0
SALSAT,2020-068K,2026-06-18T23:26:50.723808,15.29820569,.00079502,97.8853,173.1506,300.6759,59.3696,0,U,46495,999,31563,.21049844E-3,.5999E-4,0
IXPE,2021-121A,2026-06-19T00:00:02.000160,15.10264570,.00069076,0.2314,304.0291,107.8255,10.1114,0,U,49954,999,584,.58424071E-3,.10786E-3,0
SMILE,2026-109A,2026-06-07T09:11:54.544416,7.54049028,.3310191,69.9787,209.3069,288.5544,45.7342,0,U,69123,999,248,-.36778157E-3,-.41E-6,0
